[{"OBJECT_NAME":"IRIDIUM 33 DEB","OBJECT_ID":"1997-051KQ","EPOCH":"2026-02-01T16:14:52.984896","MEAN_MOTION":15.50499615,"ECCENTRICITY":0.00081885,"INCLINATION":86.2979,"RA_OF_ASC_NODE":278.1481,"ARG_OF_PERICENTER":114.9815,"MEAN_ANOMALY":302.3242,"EPHEMERIS_TYPE":0,"CLASSIFICATION_TYPE":"U","NORAD_CAT_ID":34693,"ELEMENT_SET_NO":999,"REV_AT_EPOCH":89697,"BSTAR":0.0050683258,"MEAN_MOTION_DOT":0.00299726,"MEAN_MOTION_DDOT":0},{"OBJECT_NAME":"IRIDIUM 33 DEB","OBJECT_ID":"1997-051KT","EPOCH":"2026-02-01T22:01:39.318816","MEAN_MOTION":14.69115455,"ECCENTRICITY":0.00687083,"INCLINATION":86.1841,"RA_OF_ASC_NODE":3.65,"ARG_OF_PERICENTER":358.6871,"MEAN_ANOMALY":54.4599,"EPHEMERIS_TYPE":0,"CLASSIFICATION_TYPE":"U","NORAD_CAT_ID":34696,"ELEMENT_SET_NO":999,"REV_AT_EPOCH":87423,"BSTAR":0.0070102321,"MEAN_MOTION_DOT":0.00042938,"MEAN_MOTION_DDOT":0},{"OBJECT_NAME":"IRIDIUM 33 DEB","OBJECT_ID":"1997-051LJ","EPOCH":"2026-02-01T23:14:06.230688","MEAN_MOTION":14.40636888,"ECCENTRICITY":0.0018388,"INCLINATION":86.3402,"RA_OF_ASC_NODE":10.7705,"ARG_OF_PERICENTER":53.8987,"MEAN_ANOMALY":13.9423,"EPHEMERIS_TYPE":0,"CLASSIFICATION_TYPE":"U","NORAD_CAT_ID":34765,"ELEMENT_SET_NO":999,"REV_AT_EPOCH":88351,"BSTAR":0.00041182241,"MEAN_MOTION_DOT":1.335e-5,"MEAN_MOTION_DDOT":0},{"OBJECT_NAME":"IRIDIUM 33 DEB","OBJECT_ID":"1997-051MH","EPOCH":"2026-02-01T17:49:14.153088","MEAN_MOTION":14.52769471,"ECCENTRICITY":0.00171,"INCLINATION":86.3915,"RA_OF_ASC_NODE":28.9961,"ARG_OF_PERICENTER":289.16,"MEAN_ANOMALY":196.6824,"EPHEMERIS_TYPE":0,"CLASSIFICATION_TYPE":"U","NORAD_CAT_ID":34833,"ELEMENT_SET_NO":999,"REV_AT_EPOCH":88455,"BSTAR":0.00076083206,"MEAN_MOTION_DOT":3.148e-5,"MEAN_MOTION_DDOT":0},{"OBJECT_NAME":"IRIDIUM 33 DEB","OBJECT_ID":"1997-051MQ","EPOCH":"2026-01-29T23:39:20.306880","MEAN_MOTION":14.77676272,"ECCENTRICITY":0.00190482,"INCLINATION":86.311,"RA_OF_ASC_NODE":291.972,"ARG_OF_PERICENTER":30.2419,"MEAN_ANOMALY":341.0086,"EPHEMERIS_TYPE":0,"CLASSIFICATION_TYPE":"U","NORAD_CAT_ID":34870,"ELEMENT_SET_NO":999,"REV_AT_EPOCH":89623,"BSTAR":0.0020440311,"MEAN_MOTION_DOT":0.00014717,"MEAN_MOTION_DDOT":0},{"OBJECT_NAME":"IRIDIUM 33 DEB","OBJECT_ID":"1997-051MY","EPOCH":"2026-02-01T11:52:38.353440","MEAN_MOTION":14.66930062,"ECCENTRICITY":0.00280941,"INCLINATION":86.331,"RA_OF_ASC_NODE":303.9196,"ARG_OF_PERICENTER":47.0177,"MEAN_ANOMALY":76.8648,"EPHEMERIS_TYPE":0,"CLASSIFICATION_TYPE":"U","NORAD_CAT_ID":34896,"ELEMENT_SET_NO":999,"REV_AT_EPOCH":88363,"BSTAR":0.00082369308,"MEAN_MOTION_DOT":4.657e-5,"MEAN_MOTION_DDOT":0},{"OBJECT_NAME":"IRIDIUM 33 DEB","OBJECT_ID":"1997-051NF","EPOCH":"2026-02-01T20:14:28.445856","MEAN_MOTION":14.57181427,"ECCENTRICITY":0.00783117,"INCLINATION":86.1333,"RA_OF_ASC_NODE":344.5286,"ARG_OF_PERICENTER":116.4291,"MEAN_ANOMALY":305.3256,"EPHEMERIS_TYPE":0,"CLASSIFICATION_TYPE":"U","NORAD_CAT_ID":34926,"ELEMENT_SET_NO":999,"REV_AT_EPOCH":87200,"BSTAR":0.0037925791,"MEAN_MOTION_DOT":0.00017898,"MEAN_MOTION_DDOT":0},{"OBJECT_NAME":"IRIDIUM 33 DEB","OBJECT_ID":"1997-051NR","EPOCH":"2026-02-01T18:28:05.297664","MEAN_MOTION":14.42269064,"ECCENTRICITY":0.00236183,"INCLINATION":86.3673,"RA_OF_ASC_NODE":35.0942,"ARG_OF_PERICENTER":59.9269,"MEAN_ANOMALY":119.8524,"EPHEMERIS_TYPE":0,"CLASSIFICATION_TYPE":"U","NORAD_CAT_ID":34985,"ELEMENT_SET_NO":999,"REV_AT_EPOCH":87910,"BSTAR":0.0006280563,"MEAN_MOTION_DOT":2.097e-5,"MEAN_MOTION_DDOT":0},{"OBJECT_NAME":"IRIDIUM 33 DEB","OBJECT_ID":"1997-051NX","EPOCH":"2026-02-01T19:50:22.626528","MEAN_MOTION":14.47919974,"ECCENTRICITY":0.00059947,"INCLINATION":86.3275,"RA_OF_ASC_NODE":346.5924,"ARG_OF_PERICENTER":288.1836,"MEAN_ANOMALY":71.8715,"EPHEMERIS_TYPE":0,"CLASSIFICATION_TYPE":"U","NORAD_CAT_ID":35051,"ELEMENT_SET_NO":999,"REV_AT_EPOCH":87735,"BSTAR":0.00062990238,"MEAN_MOTION_DOT":2.354e-5,"MEAN_MOTION_DDOT":0},{"OBJECT_NAME":"IRIDIUM 33 DEB","OBJECT_ID":"1997-051NY","EPOCH":"2026-01-31T20:56:44.608992","MEAN_MOTION":14.3857465,"ECCENTRICITY":0.00093208,"INCLINATION":86.3335,"RA_OF_ASC_NODE":358.9811,"ARG_OF_PERICENTER":282.2483,"MEAN_ANOMALY":77.7671,"EPHEMERIS_TYPE":0,"CLASSIFICATION_TYPE":"U","NORAD_CAT_ID":35052,"ELEMENT_SET_NO":999,"REV_AT_EPOCH":87996,"BSTAR":0.00025601243,"MEAN_MOTION_DOT":8.03e-6,"MEAN_MOTION_DDOT":0},{"OBJECT_NAME":"IRIDIUM 33 DEB","OBJECT_ID":"1997-051PF","EPOCH":"2026-02-01T17:43:43.134816","MEAN_MOTION":14.94966705,"ECCENTRICITY":0.00463758,"INCLINATION":86.2109,"RA_OF_ASC_NODE":27.8742,"ARG_OF_PERICENTER":4.6593,"MEAN_ANOMALY":355.5058,"EPHEMERIS_TYPE":0,"CLASSIFICATION_TYPE":"U","NORAD_CAT_ID":35080,"ELEMENT_SET_NO":999,"REV_AT_EPOCH":70447,"BSTAR":0.0087944502,"MEAN_MOTION_DOT":0.00099348,"MEAN_MOTION_DDOT":0},{"OBJECT_NAME":"IRIDIUM 33 DEB","OBJECT_ID":"1997-051PM","EPOCH":"2026-01-27T18:43:00.382656","MEAN_MOTION":14.45404731,"ECCENTRICITY":0.0017045,"INCLINATION":86.3917,"RA_OF_ASC_NODE":43.0981,"ARG_OF_PERICENTER":359.3271,"MEAN_ANOMALY":0.7905,"EPHEMERIS_TYPE":0,"CLASSIFICATION_TYPE":"U","NORAD_CAT_ID":35297,"ELEMENT_SET_NO":999,"REV_AT_EPOCH":71091,"BSTAR":0.001085126,"MEAN_MOTION_DOT":3.842e-5,"MEAN_MOTION_DDOT":0},{"OBJECT_NAME":"IRIDIUM 33 DEB","OBJECT_ID":"1997-051PP","EPOCH":"2026-02-01T09:37:24.076704","MEAN_MOTION":14.41327766,"ECCENTRICITY":0.00543512,"INCLINATION":86.2884,"RA_OF_ASC_NODE":11.1195,"ARG_OF_PERICENTER":297.5317,"MEAN_ANOMALY":215.0705,"EPHEMERIS_TYPE":0,"CLASSIFICATION_TYPE":"U","NORAD_CAT_ID":35299,"ELEMENT_SET_NO":999,"REV_AT_EPOCH":87060,"BSTAR":0.0013833992,"MEAN_MOTION_DOT":4.573e-5,"MEAN_MOTION_DDOT":0},{"OBJECT_NAME":"IRIDIUM 33 DEB","OBJECT_ID":"1997-051QA","EPOCH":"2026-02-01T20:55:04.689120","MEAN_MOTION":14.50081691,"ECCENTRICITY":0.00116603,"INCLINATION":86.3581,"RA_OF_ASC_NODE":2.7364,"ARG_OF_PERICENTER":301.3301,"MEAN_ANOMALY":58.6762,"EPHEMERIS_TYPE":0,"CLASSIFICATION_TYPE":"U","NORAD_CAT_ID":35480,"ELEMENT_SET_NO":999,"REV_AT_EPOCH":87772,"BSTAR":0.00065120711,"MEAN_MOTION_DOT":2.547e-5,"MEAN_MOTION_DDOT":0},{"OBJECT_NAME":"IRIDIUM 33 DEB","OBJECT_ID":"1997-051QE","EPOCH":"2026-02-01T02:31:41.988576","MEAN_MOTION":15.0385169,"ECCENTRICITY":0.00145797,"INCLINATION":86.3639,"RA_OF_ASC_NODE":329.0998,"ARG_OF_PERICENTER":329.4701,"MEAN_ANOMALY":30.5683,"EPHEMERIS_TYPE":0,"CLASSIFICATION_TYPE":"U","NORAD_CAT_ID":35484,"ELEMENT_SET_NO":999,"REV_AT_EPOCH":62771,"BSTAR":0.0031414507,"MEAN_MOTION_DOT":0.00043548,"MEAN_MOTION_DDOT":0},{"OBJECT_NAME":"IRIDIUM 33 DEB","OBJECT_ID":"1997-051QJ","EPOCH":"2026-01-31T15:40:49.194624","MEAN_MOTION":14.84513551,"ECCENTRICITY":0.0024132,"INCLINATION":86.3225,"RA_OF_ASC_NODE":277.8437,"ARG_OF_PERICENTER":220.6727,"MEAN_ANOMALY":139.2695,"EPHEMERIS_TYPE":0,"CLASSIFICATION_TYPE":"U","NORAD_CAT_ID":35488,"ELEMENT_SET_NO":999,"REV_AT_EPOCH":89006,"BSTAR":0.00092109563,"MEAN_MOTION_DOT":7.829e-5,"MEAN_MOTION_DDOT":0},{"OBJECT_NAME":"IRIDIUM 33 DEB","OBJECT_ID":"1997-051QN","EPOCH":"2026-02-01T01:37:04.136736","MEAN_MOTION":14.83638321,"ECCENTRICITY":0.00112487,"INCLINATION":86.3561,"RA_OF_ASC_NODE":322.7686,"ARG_OF_PERICENTER":19.4548,"MEAN_ANOMALY":340.7103,"EPHEMERIS_TYPE":0,"CLASSIFICATION_TYPE":"U","NORAD_CAT_ID":35616,"ELEMENT_SET_NO":999,"REV_AT_EPOCH":88320,"BSTAR":0.0016057755,"MEAN_MOTION_DOT":0.00013299,"MEAN_MOTION_DDOT":0},{"OBJECT_NAME":"IRIDIUM 33 DEB","OBJECT_ID":"1997-051QQ","EPOCH":"2026-02-01T12:54:15.041376","MEAN_MOTION":14.52586314,"ECCENTRICITY":0.00270805,"INCLINATION":86.3441,"RA_OF_ASC_NODE":331.2876,"ARG_OF_PERICENTER":202.7778,"MEAN_ANOMALY":157.2229,"EPHEMERIS_TYPE":0,"CLASSIFICATION_TYPE":"U","NORAD_CAT_ID":35618,"ELEMENT_SET_NO":999,"REV_AT_EPOCH":66131,"BSTAR":0.00046505776,"MEAN_MOTION_DOT":1.931e-5,"MEAN_MOTION_DDOT":0},{"OBJECT_NAME":"IRIDIUM 33 DEB","OBJECT_ID":"1997-051QS","EPOCH":"2026-02-01T21:04:42.113280","MEAN_MOTION":14.39888683,"ECCENTRICITY":0.01351487,"INCLINATION":86.3902,"RA_OF_ASC_NODE":195.8725,"ARG_OF_PERICENTER":89.3926,"MEAN_ANOMALY":272.2756,"EPHEMERIS_TYPE":0,"CLASSIFICATION_TYPE":"U","NORAD_CAT_ID":35620,"ELEMENT_SET_NO":999,"REV_AT_EPOCH":60701,"BSTAR":0.0029909812,"MEAN_MOTION_DOT":0.00010493,"MEAN_MOTION_DDOT":0},{"OBJECT_NAME":"IRIDIUM 33 DEB","OBJECT_ID":"1997-051QU","EPOCH":"2026-02-01T00:27:36.841824","MEAN_MOTION":15.10782697,"ECCENTRICITY":0.00057442,"INCLINATION":86.1909,"RA_OF_ASC_NODE":238.6934,"ARG_OF_PERICENTER":74.3243,"MEAN_ANOMALY":78.1316,"EPHEMERIS_TYPE":0,"CLASSIFICATION_TYPE":"U","NORAD_CAT_ID":35622,"ELEMENT_SET_NO":999,"REV_AT_EPOCH":88117,"BSTAR":0.002131059,"MEAN_MOTION_DOT":0.0003553,"MEAN_MOTION_DDOT":0},{"OBJECT_NAME":"IRIDIUM 33 DEB","OBJECT_ID":"1997-051RA","EPOCH":"2026-01-29T03:44:28.732704","MEAN_MOTION":14.68526534,"ECCENTRICITY":0.00116652,"INCLINATION":86.3587,"RA_OF_ASC_NODE":347.9155,"ARG_OF_PERICENTER":153.6401,"MEAN_ANOMALY":206.541,"EPHEMERIS_TYPE":0,"CLASSIFICATION_TYPE":"U","NORAD_CAT_ID":35628,"ELEMENT_SET_NO":999,"REV_AT_EPOCH":87142,"BSTAR":0.0024032839,"MEAN_MOTION_DOT":0.00013985,"MEAN_MOTION_DDOT":0},{"OBJECT_NAME":"IRIDIUM 33 DEB","OBJECT_ID":"1997-051RD","EPOCH":"2026-02-01T15:35:37.864320","MEAN_MOTION":14.47511715,"ECCENTRICITY":0.00154976,"INCLINATION":86.3701,"RA_OF_ASC_NODE":359.0487,"ARG_OF_PERICENTER":318.6421,"MEAN_ANOMALY":218.6745,"EPHEMERIS_TYPE":0,"CLASSIFICATION_TYPE":"U","NORAD_CAT_ID":35631,"ELEMENT_SET_NO":999,"REV_AT_EPOCH":87933,"BSTAR":0.00045296622,"MEAN_MOTION_DOT":1.686e-5,"MEAN_MOTION_DDOT":0},{"OBJECT_NAME":"IRIDIUM 33 DEB","OBJECT_ID":"1997-051RJ","EPOCH":"2026-02-01T03:34:04.318176","MEAN_MOTION":14.2174202,"ECCENTRICITY":0.01535159,"INCLINATION":86.1038,"RA_OF_ASC_NODE":359.1869,"ARG_OF_PERICENTER":117.6658,"MEAN_ANOMALY":259.4776,"EPHEMERIS_TYPE":0,"CLASSIFICATION_TYPE":"U","NORAD_CAT_ID":35680,"ELEMENT_SET_NO":999,"REV_AT_EPOCH":61417,"BSTAR":0.0019046066,"MEAN_MOTION_DOT":4.74e-5,"MEAN_MOTION_DDOT":0}]
